{"type": "FeatureCollection", "features": [ {"type": "Feature", "properties": {"norad_id": 34626, "name": "COSMOS 2251 DEB", "group": "cosmos-2251-debris", "lat": -73.83260891643442, "lon": -100.52305365856049, "alt_km": 678.682292905316, "timestamp": "2025-12-04T09:47:37.914559+00:00", "meta": {"OBJECT_NAME": "COSMOS 2251 DEB", "OBJECT_ID": "1993-036WX", "EPOCH": "2025-12-03T10:25:41.739168", "MEAN_MOTION": 14.72014634, "ECCENTRICITY": 0.00261929, "INCLINATION": 74.048, "RA_OF_ASC_NODE": 341.9842, "ARG_OF_PERICENTER": 73.1994, "MEAN_ANOMALY": 82.4621, "EPHEMERIS_TYPE": 0, "CLASSIFICATION_TYPE": "U", "NORAD_CAT_ID": 34626, "ELEMENT_SET_NO": 999, "REV_AT_EPOCH": 89007, "BSTAR": 0.0012403674, "MEAN_MOTION_DOT": 7.808e-05, "MEAN_MOTION_DDOT": 0}, "tle": {"line1": "1 34626U 93036WX  25337.43451087  .00007808  00000+0  12404-2 0  9999", "line2": "2 34626  74.0480 341.9842 0026192  73.1994  82.4621 14.72014634890079"}}, "geometry": {"type": "Point", "coordinates": [-100.52305365856049, -73.83260891643442]}}, {"type": "Feature", "properties": {"norad_id": 34634, "name": "COSMOS 2251 DEB", "group": "cosmos-2251-debris", "lat": -31.890644280349314, "lon": -119.00508003732888, "alt_km": 693.8048955674903, "timestamp": "2025-12-04T09:47:37.914569+00:00", "meta": {"OBJECT_NAME": "COSMOS 2251 DEB", "OBJECT_ID": "1993-036XF", "EPOCH": "2025-12-03T04:55:03.889632", "MEAN_MOTION": 14.55607531, "ECCENTRICITY": 0.00447165, "INCLINATION": 74.0529, "RA_OF_ASC_NODE": 53.0232, "ARG_OF_PERICENTER": 163.1109, "MEAN_ANOMALY": 227.4386, "EPHEMERIS_TYPE": 0, "CLASSIFICATION_TYPE": "U", "NORAD_CAT_ID": 34634, "ELEMENT_SET_NO": 999, "REV_AT_EPOCH": 88643, "BSTAR": 0.00055498013, "MEAN_MOTION_DOT": 2.426e-05, "MEAN_MOTION_DDOT": 0}, "tle": {"line1": "1 34634U 93036XF  25337.20490613  .00002426  00000+0  55498-3 0  9993", "line2": "2 34634  74.0529  53.0232 0044716 163.1109 227.4386 14.55607531886435"}}, "geometry": {"type": "Point", "coordinates": [-119.00508003732888, -31.890644280349314]}}, {"type": "Feature", "properties": {"norad_id": 34635, "name": "COSMOS 2251 DEB", "group": "cosmos-2251-debris", "lat": 55.164057679076265, "lon": 111.08397749877756, "alt_km": 665.0807443263375, "timestamp": "2025-12-04T09:47:37.914579+00:00", "meta": {"OBJECT_NAME": "COSMOS 2251 DEB", "OBJECT_ID": "1993-036XG", "EPOCH": "2025-12-04T03:16:54.982272", "MEAN_MOTION": 14.6805181, "ECCENTRICITY": 0.0029507, "INCLINATION": 74.0457, "RA_OF_ASC_NODE": 87.3368, "ARG_OF_PERICENTER": 158.8748, "MEAN_ANOMALY": 266.7454, "EPHEMERIS_TYPE": 0, "CLASSIFICATION_TYPE": "U", "NORAD_CAT_ID": 34635, "ELEMENT_SET_NO": 999, "REV_AT_EPOCH": 73093, "BSTAR": 0.0032027, "MEAN_MOTION_DOT": 0.00018519, "MEAN_MOTION_DDOT": 0}, "tle": {"line1": "1 34635U 93036XG  25338.13674748  .00018519  00000+0  32027-2 0  9992", "line2": "2 34635  74.0457  87.3368 0029507 158.8748 266.7454 14.68051810730939"}}, "geometry": {"type": "Point", "coordinates": [111.08397749877756, 55.164057679076265]}}, {"type": "Feature", "properties": {"norad_id": 34637, "name": "COSMOS 2251 DEB", "group": "cosmos-2251-debris", "lat": 45.06288589868607, "lon": -79.61413690457361, "alt_km": 669.4316192458182, "timestamp": "2025-12-04T09:47:37.914589+00:00", "meta": {"OBJECT_NAME": "COSMOS 2251 DEB", "OBJECT_ID": "1993-036XJ", "EPOCH": "2025-12-03T08:38:20.779008", "MEAN_MOTION": 14.59934348, "ECCENTRICITY": 0.0050664, "INCLINATION": 74.0477, "RA_OF_ASC_NODE": 119.0417, "ARG_OF_PERICENTER": 191.6838, "MEAN_ANOMALY": 194.9044, "EPHEMERIS_TYPE": 0, "CLASSIFICATION_TYPE": "U", "NORAD_CAT_ID": 34637, "ELEMENT_SET_NO": 999, "REV_AT_EPOCH": 88390, "BSTAR": 0.0016283, "MEAN_MOTION_DOT": 7.923e-05, "MEAN_MOTION_DDOT": 0}, "tle": {"line1": "1 34637U 93036XJ  25337.35996272  .00007923  00000+0  16283-2 0  9999", "line2": "2 34637  74.0477 119.0417 0050664 191.6838 194.9044 14.59934348883903"}}, "geometry": {"type": "Point", "coordinates": [-79.61413690457361, 45.06288589868607]}}, {"type": "Feature", "properties": {"norad_id": 34641, "name": "COSMOS 2251 DEB", "group": "cosmos-2251-debris", "lat": 5.318102321156134, "lon": 99.07732392041957, "alt_km": 709.0414148921236, "timestamp": "2025-12-04T09:47:37.914599+00:00", "meta": {"OBJECT_NAME": "COSMOS 2251 DEB", "OBJECT_ID": "1993-036XN", "EPOCH": "2025-12-04T02:19:42.190176", "MEAN_MOTION": 14.51887703, "ECCENTRICITY": 0.0017602, "INCLINATION": 73.8383, "RA_OF_ASC_NODE": 98.1232, "ARG_OF_PERICENTER": 15.6609, "MEAN_ANOMALY": 164.8193, "EPHEMERIS_TYPE": 0, "CLASSIFICATION_TYPE": "U", "NORAD_CAT_ID": 34641, "ELEMENT_SET_NO": 999, "REV_AT_EPOCH": 88130, "BSTAR": 0.0021675, "MEAN_MOTION_DOT": 8.736e-05, "MEAN_MOTION_DDOT": 0}, "tle": {"line1": "1 34641U 93036XN  25338.09701609  .00008736  00000+0  21675-2 0  9998", "line2": "2 34641  73.8383  98.1232 0017602  15.6609 164.8193 14.51887703881306"}}, "geometry": {"type": "Point", "coordinates": [99.07732392041957, 5.318102321156134]}}, {"type": "Feature", "properties": {"norad_id": 34642, "name": "COSMOS 2251 DEB", "group": "cosmos-2251-debris", "lat": -56.65835087757435, "lon": -159.92018831047102, "alt_km": 836.019700532931, "timestamp": "2025-12-04T09:47:37.914610+00:00", "meta": {"OBJECT_NAME": "COSMOS 2251 DEB", "OBJECT_ID": "1993-036XP", "EPOCH": "2025-12-03T19:46:36.748416", "MEAN_MOTION": 13.98929953, "ECCENTRICITY": 0.02080507, "INCLINATION": 74.0052, "RA_OF_ASC_NODE": 355.2445, "ARG_OF_PERICENTER": 177.1299, "MEAN_ANOMALY": 0.8483, "EPHEMERIS_TYPE": 0, "CLASSIFICATION_TYPE": "U", "NORAD_CAT_ID": 34642, "ELEMENT_SET_NO": 999, "REV_AT_EPOCH": 85168, "BSTAR": 0.001499188, "MEAN_MOTION_DOT": 2.582e-05, "MEAN_MOTION_DDOT": 0}, "tle": {"line1": "1 34642U 93036XP  25337.82403644  .00002582  00000+0  14992-2 0  9994", "line2": "2 34642  74.0052 355.2445 0208050 177.1299   0.8483 13.98929953851687"}}, "geometry": {"type": "Point", "coordinates": [-159.92018831047102, -56.65835087757435]}}, {"type": "Feature", "properties": {"norad_id": 34671, "name": "COSMOS 2251 DEB", "group": "cosmos-2251-debris", "lat": 23.531147855293092, "lon": 157.54250766270533, "alt_km": 678.7134981443933, "timestamp": "2025-12-04T09:47:37.914619+00:00", "meta": {"OBJECT_NAME": "COSMOS 2251 DEB", "OBJECT_ID": "1993-036XR", "EPOCH": "2025-12-02T18:28:46.543296", "MEAN_MOTION": 14.66635988, "ECCENTRICITY": 0.00121385, "INCLINATION": 74.0249, "RA_OF_ASC_NODE": 153.5364, "ARG_OF_PERICENTER": 231.9142, "MEAN_ANOMALY": 147.1832, "EPHEMERIS_TYPE": 0, "CLASSIFICATION_TYPE": "U", "NORAD_CAT_ID": 34671, "ELEMENT_SET_NO": 999, "REV_AT_EPOCH": 88151, "BSTAR": 0.0019192945, "MEAN_MOTION_DOT": 0.00010666, "MEAN_MOTION_DDOT": 0}, "tle": {"line1": "1 34671U 93036XR  25336.76998314  .00010666  00000+0  19193-2 0  9991", "line2": "2 34671  74.0249 153.5364 0012138 231.9142 147.1832 14.66635988881518"}}, "geometry": {"type": "Point", "coordinates": [157.54250766270533, 23.531147855293092]}}, {"type": "Feature", "properties": {"norad_id": 34672, "name": "COSMOS 2251 DEB", "group": "cosmos-2251-debris", "lat": 33.758209747060434, "lon": -28.06896891521862, "alt_km": 751.2146252840466, "timestamp": "2025-12-04T09:47:37.914629+00:00", "meta": {"OBJECT_NAME": "COSMOS 2251 DEB", "OBJECT_ID": "1993-036XS", "EPOCH": "2025-12-03T05:16:26.844096", "MEAN_MOTION": 14.36383689, "ECCENTRICITY": 0.0023434, "INCLINATION": 74.0334, "RA_OF_ASC_NODE": 323.0813, "ARG_OF_PERICENTER": 37.198, "MEAN_ANOMALY": 335.8708, "EPHEMERIS_TYPE": 0, "CLASSIFICATION_TYPE": "U", "NORAD_CAT_ID": 34672, "ELEMENT_SET_NO": 999, "REV_AT_EPOCH": 65041, "BSTAR": 0.00037825, "MEAN_MOTION_DOT": 1.085e-05, "MEAN_MOTION_DDOT": 0}, "tle": {"line1": "1 34672U 93036XS  25337.21975514  .00001085  00000+0  37825-3 0  9998", "line2": "2 34672  74.0334 323.0813 0023434  37.1980 335.8708 14.36383689650410"}}, "geometry": {"type": "Point", "coordinates": [-28.06896891521862, 33.758209747060434]}}, {"type": "Feature", "properties": {"norad_id": 34678, "name": "COSMOS 2251 DEB", "group": "cosmos-2251-debris", "lat": 45.568361555261646, "lon": 37.81492967770237, "alt_km": 771.4076497043343, "timestamp": "2025-12-04T09:47:37.914639+00:00", "meta": {"OBJECT_NAME": "COSMOS 2251 DEB", "OBJECT_ID": "1993-036XY", "EPOCH": "2025-12-03T22:06:34.214112", "MEAN_MOTION": 14.30062796, "ECCENTRICITY": 0.0024256, "INCLINATION": 74.0383, "RA_OF_ASC_NODE": 21.7254, "ARG_OF_PERICENTER": 73.7255, "MEAN_ANOMALY": 349.0255, "EPHEMERIS_TYPE": 0, "CLASSIFICATION_TYPE": "U", "NORAD_CAT_ID": 34678, "ELEMENT_SET_NO": 999, "REV_AT_EPOCH": 87253, "BSTAR": 5.9362e-05, "MEAN_MOTION_DOT": 1.28e-06, "MEAN_MOTION_DDOT": 0}, "tle": {"line1": "1 34678U 93036XY  25337.92122933  .00000128  00000+0  59362-4 0  9999", "line2": "2 34678  74.0383  21.7254 0024256  73.7255 349.0255 14.30062796872535"}}, "geometry": {"type": "Point", "coordinates": [37.81492967770237, 45.568361555261646]}}, {"type": "Feature", "properties": {"norad_id": 34680, "name": "COSMOS 2251 DEB", "group": "cosmos-2251-debris", "lat": 41.36779061383534, "lon": -48.83127776002658, "alt_km": 689.0923772458909, "timestamp": "2025-12-04T09:47:37.914650+00:00", "meta": {"OBJECT_NAME": "COSMOS 2251 DEB", "OBJECT_ID": "1993-036YA", "EPOCH": "2025-12-02T11:16:46.526880", "MEAN_MOTION": 14.6043687, "ECCENTRICITY": 0.00070971, "INCLINATION": 74.0418, "RA_OF_ASC_NODE": 149.4617, "ARG_OF_PERICENTER": 243.0574, "MEAN_ANOMALY": 147.946, "EPHEMERIS_TYPE": 0, "CLASSIFICATION_TYPE": "U", "NORAD_CAT_ID": 34680, "ELEMENT_SET_NO": 999, "REV_AT_EPOCH": 88178, "BSTAR": 0.0013755581, "MEAN_MOTION_DOT": 6.644e-05, "MEAN_MOTION_DDOT": 0}, "tle": {"line1": "1 34680U 93036YA  25336.46998295  .00006644  00000+0  13756-2 0  9996", "line2": "2 34680  74.0418 149.4617 0007097 243.0574 147.9460 14.60436870881789"}}, "geometry": {"type": "Point", "coordinates": [-48.83127776002658, 41.36779061383534]}}]}